STARLETTE               
1 07646U 75010A   21054.15732355 -.00000153  00000-0 -72035-5 0  9992
2 07646  49.8222 201.9573 0205796 134.3024 227.4951 13.82308948326170
LAGEOS 1                
1 08820U 76039A   21054.10975448  .00000034  00000-0  00000+0 0  9999
2 08820 109.8202 234.7699 0045009 356.7815 102.1268  6.38664691789659
AJISAI (EGS)            
1 16908U 86061A   21054.20446264 -.00000104  00000-0 -44869-4 0  9997
2 16908  50.0122 352.6646 0011280 282.8646  67.1765 12.44493105239162
COSMOS 1989 (ETALON 1)  
1 19751U 89001C   21053.86549441 -.00000007  00000-0  00000-0 0  9991
2 19751  64.2128 138.8730 0023071 211.6406 145.8181  2.13156317250005
COSMOS 2024 (ETALON 2)  
1 20026U 89039C   21054.36779209 -.00000046  00000-0  00000+0 0  9994
2 20026  65.5345  16.6185 0018315 220.3481 352.5160  2.13204306247135
LAGEOS 2                
1 22195U 92070B   21054.50663058 -.00000009  00000-0  00000+0 0  9991
2 22195  52.6668  52.4827 0137439  59.2781 107.0265  6.47293732670042
STELLA                  
1 22824U 93061B   21053.93287186 -.00000033  00000-0  56904-5 0  9998
2 22824  98.9766  57.2000 0007438 101.3378 319.8558 14.27383353427971
LARES                   
1 38077U 12006A   21053.62059775 -.00000043  00000-0 -25806-4 0  9990
2 38077  69.4967   6.9031 0006341  71.9464 288.2253 12.54930955413700
